{
    "links": {
        "self": "http://www.neowsapp.com/rest/v1/neo/3843505?api_key=iIulBulltgU6a56xZRHN4H3l9WmuAYTsLGpBGhQ2"
    },
    "id": "3843505",
    "neo_reference_id": "3843505",
    "name": "(2019 PD1)",
    "designation": "2019 PD1",
    "nasa_jpl_url": "http://ssd.jpl.nasa.gov/sbdb.cgi?sstr=3843505",
    "absolute_magnitude_h": 26.6,
    "estimated_diameter": {
        "kilometers": {
            "estimated_diameter_min": 0.0127219879,
            "estimated_diameter_max": 0.0284472297
        },
        "meters": {
            "estimated_diameter_min": 12.7219878539,
            "estimated_diameter_max": 28.4472296503
        },
        "miles": {
            "estimated_diameter_min": 0.0079050743,
            "estimated_diameter_max": 0.0176762835
        },
        "feet": {
            "estimated_diameter_min": 41.7388066307,
            "estimated_diameter_max": 93.330808926
        }
    },
    "is_potentially_hazardous_asteroid": false,
    "close_approach_data": [
        {
            "close_approach_date": "1968-09-26",
            "close_approach_date_full": "1968-Sep-26 10:09",
            "epoch_date_close_approach": -39880260000,
            "relative_velocity": {
                "kilometers_per_second": "12.3107071324",
                "kilometers_per_hour": "44318.5456765363",
                "miles_per_hour": "27537.8207844011"
            },
            "miss_distance": {
                "astronomical": "0.3823836239",
                "lunar": "148.7472296971",
                "kilometers": "57203775.658321093",
                "miles": "35544777.9608253634"
            },
            "orbiting_body": "Earth"
        },
        {
            "close_approach_date": "2019-08-21",
            "close_approach_date_full": "2019-Aug-21 18:03",
            "epoch_date_close_approach": 1566410580000,
            "relative_velocity": {
                "kilometers_per_second": "3.3611813034",
                "kilometers_per_hour": "12100.2526922448",
                "miles_per_hour": "7518.6264575785"
            },
            "miss_distance": {
                "astronomical": "0.0602077876",
                "lunar": "23.4208293764",
                "kilometers": "9006956.782372412",
                "miles": "5596663.4238348056"
            },
            "orbiting_body": "Earth"
        },
        {
            "close_approach_date": "2081-08-28",
            "close_approach_date_full": "2081-Aug-28 06:24",
            "epoch_date_close_approach": 3523587840000,
            "relative_velocity": {
                "kilometers_per_second": "3.1534678746",
                "kilometers_per_hour": "11352.4843484024",
                "miles_per_hour": "7053.9922885948"
            },
            "miss_distance": {
                "astronomical": "0.067895734",
                "lunar": "26.411440526",
                "kilometers": "10157057.18848658",
                "miles": "6311302.677931604"
            },
            "orbiting_body": "Earth"
        }
    ],
    "orbital_data": {
        "orbit_id": "3",
        "orbit_determination_date": "2019-08-27 05:31:48",
        "first_observation_date": "2019-08-08",
        "last_observation_date": "2019-08-27",
        "data_arc_in_days": 19,
        "observations_used": 15,
        "orbit_uncertainty": "8",
        "minimum_orbit_intersection": ".0582979",
        "jupiter_tisserand_invariant": "4.813",
        "epoch_osculation": "2458706.5",
        "eccentricity": ".2193118033991739",
        "semi_major_axis": "1.363247782553983",
        "inclination": "4.011907409065399",
        "ascending_node_longitude": "136.9990145866472",
        "orbital_period": "581.3807218328361",
        "perihelion_distance": "1.064271452882144",
        "perihelion_argument": "202.9194534494342",
        "aphelion_distance": "1.662224112225822",
        "perihelion_time": "2458728.254096179418",
        "mean_anomaly": "346.5295247494597",
        "mean_motion": ".6192155785026364",
        "equinox": "J2000",
        "orbit_class": {
            "orbit_class_type": "AMO",
            "orbit_class_description": "Near-Earth asteroid orbits similar to that of 1221 Amor",
            "orbit_class_range": "1.017 AU < q (perihelion) < 1.3 AU"
        }
    },
    "is_sentry_object": false
}